[
    {
        "Altitude(m)": 607886.726736931,
        "Argument of Periapsis(deg)": 0.0,
        "Eccentricity": 0.0,
        "Inclination(deg)": 60.0,
        "Latitude(deg)": 40.99853923785776,
        "Longitude(deg)": 149.97301943936336,
        "Mean Anomaly(deg)": 49.09089999999999,
        "RAAN(deg)": 220.00000000000003,
        "Satellite Name": "Test1 971",
        "Satellite Number": 971,
        "Semi-Major Axis(m)": 6980739.136638005,
        "Time(s)": 0
    },
    {
        "Altitude(m)": 607987.6407036764,
        "Argument of Periapsis(deg)": 0.00010418945913296404,
        "Eccentricity": 0.0,
        "Inclination(deg)": 60.0,
        "Latitude(deg)": 41.463628894223994,
        "Longitude(deg)": 150.47724870621389,
        "Mean Anomaly(deg)": 49.711006145461845,
        "RAAN(deg)": 219.99957995086027,
        "Satellite Name": "Test1 971",
        "Satellite Number": 971,
        "Semi-Major Axis(m)": 6980739.136638005,
        "Time(s)": 10
    },
    {
        "Altitude(m)": 608088.6042736942,
        "Argument of Periapsis(deg)": 0.0002083789182659281,
        "Eccentricity": 0.0,
        "Inclination(deg)": 60.0,
        "Latitude(deg)": 41.926054363189735,
        "Longitude(deg)": 150.98930101995398,
        "Mean Anomaly(deg)": 50.331112290923684,
        "RAAN(deg)": 219.9991599017205,
        "Satellite Name": "Test1 971",
        "Satellite Number": 971,
        "Semi-Major Axis(m)": 6980739.136638005,
        "Time(s)": 20
    },
    {
        "Altitude(m)": 608189.5542257555,
        "Argument of Periapsis(deg)": 0.00031256837739889213,
        "Eccentricity": 0.0,
        "Inclination(deg)": 60.0,
        "Latitude(deg)": 42.38573489470574,
        "Longitude(deg)": 151.50937242234355,
        "Mean Anomaly(deg)": 50.951218436385474,
        "RAAN(deg)": 219.99873985258077,
        "Satellite Name": "Test1 971",
        "Satellite Number": 971,
        "Semi-Major Axis(m)": 6980739.136638005,
        "Time(s)": 30
    },
    {
        "Altitude(m)": 608290.4275653672,
        "Argument of Periapsis(deg)": 0.0004167578365318562,
        "Eccentricity": 0.0,
        "Inclination(deg)": 60.0,
        "Latitude(deg)": 42.8425871916661,
        "Longitude(deg)": 152.03766282185728,
        "Mean Anomaly(deg)": 51.5713245818473,
        "RAAN(deg)": 219.99831980344106,
        "Satellite Name": "Test1 971",
        "Satellite Number": 971,
        "Semi-Major Axis(m)": 6980739.136638005,
        "Time(s)": 40
    },
    {
        "Altitude(m)": 608391.1615560136,
        "Argument of Periapsis(deg)": 0.0005209472956648203,
        "Eccentricity": 0.0,
        "Inclination(deg)": 60.0,
        "Latitude(deg)": 43.29652533052284,
        "Longitude(deg)": 152.5743748986606,
        "Mean Anomaly(deg)": 52.191430727309154,
        "RAAN(deg)": 219.9978997543013,
        "Satellite Name": "Test1 971",
        "Satellite Number": 971,
        "Semi-Major Axis(m)": 6980739.136638005,
        "Time(s)": 50
    },
    {
        "Altitude(m)": 608491.6937502514,
        "Argument of Periapsis(deg)": 0.0006251367547977843,
        "Eccentricity": 0.0,
        "Inclination(deg)": 60.0,
        "Latitude(deg)": 43.74746068118922,
        "Longitude(deg)": 153.11971450269417,
        "Mean Anomaly(deg)": 52.81153687277099,
        "RAAN(deg)": 219.99747970516154,
        "Satellite Name": "Test1 971",
        "Satellite Number": 971,
        "Semi-Major Axis(m)": 6980739.136638005,
        "Time(s)": 60
    },
    {
        "Altitude(m)": 608591.9620205796,
        "Argument of Periapsis(deg)": 0.0007293262139307483,
        "Eccentricity": 0.0,
        "Inclination(deg)": 60.0,
        "Latitude(deg)": 44.1953018264659,
        "Longitude(deg)": 153.67389103010237,
        "Mean Anomaly(deg)": 53.43164301823279,
        "RAAN(deg)": 219.9970596560218,
        "Satellite Name": "Test1 971",
        "Satellite Number": 971,
        "Semi-Major Axis(m)": 6980739.136638005,
        "Time(s)": 70
    },
    {
        "Altitude(m)": 608691.9045901393,
        "Argument of Periapsis(deg)": 0.0008335156730637124,
        "Eccentricity": 0.0,
        "Inclination(deg)": 60.0,
        "Latitude(deg)": 44.63995448125691,
        "Longitude(deg)": 154.23711626312007,
        "Mean Anomaly(deg)": 54.05174916369461,
        "RAAN(deg)": 219.9966396068821,
        "Satellite Name": "Test1 971",
        "Satellite Number": 971,
        "Semi-Major Axis(m)": 6980739.136638005,
        "Time(s)": 80
    },
    {
        "Altitude(m)": 608791.4600631761,
        "Argument of Periapsis(deg)": 0.0009377051321966765,
        "Eccentricity": 0.0,
        "Inclination(deg)": 60.0,
        "Latitude(deg)": 45.08132141187255,
        "Longitude(deg)": 154.80960469703072,
        "Mean Anomaly(deg)": 54.67185530915647,
        "RAAN(deg)": 219.9962195577423,
        "Satellite Name": "Test1 971",
        "Satellite Number": 971,
        "Semi-Major Axis(m)": 6980739.136638005,
        "Time(s)": 90
    },
    {
        "Altitude(m)": 608890.5674552837,
        "Argument of Periapsis(deg)": 0.0010418945913296407,
        "Eccentricity": 0.0,
        "Inclination(deg)": 60.0,
        "Latitude(deg)": 45.5193023557636,
        "Longitude(deg)": 155.39157383906488,
        "Mean Anomaly(deg)": 55.2919614546183,
        "RAAN(deg)": 219.9957995086026,
        "Satellite Name": "Test1 971",
        "Satellite Number": 971,
        "Semi-Major Axis(m)": 6980739.136638005,
        "Time(s)": 100
    },
    {
        "Altitude(m)": 608989.1662233837,
        "Argument of Periapsis(deg)": 0.0011460840504626045,
        "Eccentricity": 0.0,
        "Inclination(deg)": 60.0,
        "Latitude(deg)": 45.9537939420754,
        "Longitude(deg)": 155.98324296398195,
        "Mean Anomaly(deg)": 55.91206760008015,
        "RAAN(deg)": 219.99537945946284,
        "Satellite Name": "Test1 971",
        "Satellite Number": 971,
        "Semi-Major Axis(m)": 6980739.136638005,
        "Time(s)": 110
    },
    {
        "Altitude(m)": 609087.1962954743,
        "Argument of Periapsis(deg)": 0.0012502735095955685,
        "Eccentricity": 0.0,
        "Inclination(deg)": 60.0,
        "Latitude(deg)": 46.38468961344843,
        "Longitude(deg)": 156.58483334958697,
        "Mean Anomaly(deg)": 56.53217374554198,
        "RAAN(deg)": 219.99495941032308,
        "Satellite Name": "Test1 971",
        "Satellite Number": 971,
        "Semi-Major Axis(m)": 6980739.136638005,
        "Time(s)": 120
    },
    {
        "Altitude(m)": 609184.5981000741,
        "Argument of Periapsis(deg)": 0.0013544629687285324,
        "Eccentricity": 0.0,
        "Inclination(deg)": 60.0,
        "Latitude(deg)": 46.81187954955245,
        "Longitude(deg)": 157.19656847669575,
        "Mean Anomaly(deg)": 57.15227989100378,
        "RAAN(deg)": 219.99453936118334,
        "Satellite Name": "Test1 971",
        "Satellite Number": 971,
        "Semi-Major Axis(m)": 6980739.136638005,
        "Time(s)": 130
    },
    {
        "Altitude(m)": 609281.3125954226,
        "Argument of Periapsis(deg)": 0.0014586524278614966,
        "Eccentricity": 0.0,
        "Inclination(deg)": 60.0,
        "Latitude(deg)": 47.23525059289394,
        "Longitude(deg)": 157.8186726779589,
        "Mean Anomaly(deg)": 57.77238603646561,
        "RAAN(deg)": 219.99411931204364,
        "Satellite Name": "Test1 971",
        "Satellite Number": 971,
        "Semi-Major Axis(m)": 6980739.136638005,
        "Time(s)": 140
    },
    {
        "Altitude(m)": 609377.2812983316,
        "Argument of Periapsis(deg)": 0.0015628418869944607,
        "Eccentricity": 0.0,
        "Inclination(deg)": 60.0,
        "Latitude(deg)": 47.65468617748761,
        "Longitude(deg)": 158.4513712584843,
        "Mean Anomaly(deg)": 58.39249218192746,
        "RAAN(deg)": 219.99369926290387,
        "Satellite Name": "Test1 971",
        "Satellite Number": 971,
        "Semi-Major Axis(m)": 6980739.136638005,
        "Time(s)": 150
    },
    {
        "Altitude(m)": 609472.446312776,
        "Argument of Periapsis(deg)": 0.0016670313461274247,
        "Eccentricity": 0.0,
        "Inclination(deg)": 60.0,
        "Latitude(deg)": 48.070066261052915,
        "Longitude(deg)": 159.09489057249888,
        "Mean Anomaly(deg)": 59.01259832738929,
        "RAAN(deg)": 219.9932792137641,
        "Satellite Name": "Test1 971",
        "Satellite Number": 971,
        "Semi-Major Axis(m)": 6980739.136638005,
        "Time(s)": 160
    },
    {
        "Altitude(m)": 609566.7503581205,
        "Argument of Periapsis(deg)": 0.0017712208052603888,
        "Eccentricity": 0.0,
        "Inclination(deg)": 60.0,
        "Latitude(deg)": 48.48126726146057,
        "Longitude(deg)": 159.74945654022812,
        "Mean Anomaly(deg)": 59.63270447285109,
        "RAAN(deg)": 219.99285916462438,
        "Satellite Name": "Test1 971",
        "Satellite Number": 971,
        "Semi-Major Axis(m)": 6980739.136638005,
        "Time(s)": 170
    },
    {
        "Altitude(m)": 609660.1367970409,
        "Argument of Periapsis(deg)": 0.001875410264393353,
        "Eccentricity": 0.0,
        "Inclination(deg)": 60.0,
        "Latitude(deg)": 48.88816199821646,
        "Longitude(deg)": 160.41529462776313,
        "Mean Anomaly(deg)": 60.25281061831292,
        "RAAN(deg)": 219.99243911548467,
        "Satellite Name": "Test1 971",
        "Satellite Number": 971,
        "Semi-Major Axis(m)": 6980739.136638005,
        "Time(s)": 180
    },
    {
        "Altitude(m)": 609752.5496630773,
        "Argument of Periapsis(deg)": 0.0019795997235263173,
        "Eccentricity": 0.0,
        "Inclination(deg)": 60.0,
        "Latitude(deg)": 49.29061963984863,
        "Longitude(deg)": 161.09262977405336,
        "Mean Anomaly(deg)": 60.87291676377477,
        "RAAN(deg)": 219.9920190663449,
        "Satellite Name": "Test1 971",
        "Satellite Number": 971,
        "Semi-Major Axis(m)": 6980739.136638005,
        "Time(s)": 190
    }
]